EUTELSAT 21B            
1 38992U 12062B   25344.25947630  .00000133  00000+0  00000+0 0  9991
2 38992   0.0664   0.5578 0003290 267.7897 285.8968  1.00271386 47931
EUTELSAT 70B            
1 39020U 12069A   25344.36225228 -.00000040  00000+0  00000+0 0  9993
2 39020   0.0637 340.3910 0004358 263.8653  36.0131  1.00271755 47615
EUTELSAT 117 WEST A     
1 39122U 13012A   25344.36850492 -.00000009  00000+0  00000+0 0  9997
2 39122   0.0124 358.5281 0003027 263.2322 193.4421  1.00270995 46546
EUTELSAT 7B             
1 39163U 13022A   25344.26503120  .00000051  00000+0  00000+0 0  9991
2 39163   0.0716  16.4121 0004588 298.9676 226.2631  1.00272011 46067
EXPRESS-AT1             
1 39612U 14010A   25344.52822792  .00000083  00000+0  00000+0 0  9991
2 39612   0.0127 295.3549 0000526 270.9532 119.3483  1.00270745 42923
EXPRESS-AT2             
1 39613U 14010B   25344.53447481  .00000000  00000+0  00000+0 0  9990
2 39613   0.0161 340.0718 0001525 315.0800 116.6304  1.00269643 42609
EUTELSAT 3B             
1 39773U 14030A   25344.27058868  .00000023  00000+0  00000+0 0  9992
2 39773   0.0626 343.8632 0004689 244.6896 311.2150  1.00271741 42170
EUTELSAT 115 WEST B     
1 40425U 15010B   25344.56771137 -.00000021  00000+0  00000+0 0  9999
2 40425   0.0096 142.1044 0000248 302.6393  84.2706  1.00270169 39508
