<?xml version="1.0" encoding="UTF-8"?>
<ndm xmlns:xsi="http://www.w3.org/2001/XMLSchema-instance" xsi:noNamespaceSchemaLocation="https://sanaregistry.org/r/ndmxml_unqualified/ndmxml-2.0.0-master-2.0.xsd">
<omm id="CCSDS_OMM_VERS" version="2.0">
<header><CREATION_DATE/><ORIGINATOR/></header><body><segment><metadata><OBJECT_NAME>EUTELSAT 21B</OBJECT_NAME><OBJECT_ID>2012-062B</OBJECT_ID><CENTER_NAME>EARTH</CENTER_NAME><REF_FRAME>TEME</REF_FRAME><TIME_SYSTEM>UTC</TIME_SYSTEM><MEAN_ELEMENT_THEORY>SGP4</MEAN_ELEMENT_THEORY></metadata><data><meanElements><EPOCH>2025-12-10T06:13:38.752320</EPOCH><MEAN_MOTION>1.00271386</MEAN_MOTION><ECCENTRICITY>.000329</ECCENTRICITY><INCLINATION>0.0664</INCLINATION><RA_OF_ASC_NODE>0.5578</RA_OF_ASC_NODE><ARG_OF_PERICENTER>267.7897</ARG_OF_PERICENTER><MEAN_ANOMALY>285.8968</MEAN_ANOMALY></meanElements><tleParameters><EPHEMERIS_TYPE>0</EPHEMERIS_TYPE><CLASSIFICATION_TYPE>U</CLASSIFICATION_TYPE><NORAD_CAT_ID>38992</NORAD_CAT_ID><ELEMENT_SET_NO>999</ELEMENT_SET_NO><REV_AT_EPOCH>4793</REV_AT_EPOCH><BSTAR>0</BSTAR><MEAN_MOTION_DOT>.133E-5</MEAN_MOTION_DOT><MEAN_MOTION_DDOT>0</MEAN_MOTION_DDOT></tleParameters></data></segment></body></omm>
<omm id="CCSDS_OMM_VERS" version="2.0">
<header><CREATION_DATE/><ORIGINATOR/></header><body><segment><metadata><OBJECT_NAME>EUTELSAT 70B</OBJECT_NAME><OBJECT_ID>2012-069A</OBJECT_ID><CENTER_NAME>EARTH</CENTER_NAME><REF_FRAME>TEME</REF_FRAME><TIME_SYSTEM>UTC</TIME_SYSTEM><MEAN_ELEMENT_THEORY>SGP4</MEAN_ELEMENT_THEORY></metadata><data><meanElements><EPOCH>2025-12-10T08:41:38.596992</EPOCH><MEAN_MOTION>1.00271755</MEAN_MOTION><ECCENTRICITY>.00043584</ECCENTRICITY><INCLINATION>0.0637</INCLINATION><RA_OF_ASC_NODE>340.3910</RA_OF_ASC_NODE><ARG_OF_PERICENTER>263.8653</ARG_OF_PERICENTER><MEAN_ANOMALY>36.0131</MEAN_ANOMALY></meanElements><tleParameters><EPHEMERIS_TYPE>0</EPHEMERIS_TYPE><CLASSIFICATION_TYPE>U</CLASSIFICATION_TYPE><NORAD_CAT_ID>39020</NORAD_CAT_ID><ELEMENT_SET_NO>999</ELEMENT_SET_NO><REV_AT_EPOCH>4761</REV_AT_EPOCH><BSTAR>0</BSTAR><MEAN_MOTION_DOT>-.4E-6</MEAN_MOTION_DOT><MEAN_MOTION_DDOT>0</MEAN_MOTION_DDOT></tleParameters></data></segment></body></omm>
<omm id="CCSDS_OMM_VERS" version="2.0">
<header><CREATION_DATE/><ORIGINATOR/></header><body><segment><metadata><OBJECT_NAME>EUTELSAT 117 WEST A</OBJECT_NAME><OBJECT_ID>2013-012A</OBJECT_ID><CENTER_NAME>EARTH</CENTER_NAME><REF_FRAME>TEME</REF_FRAME><TIME_SYSTEM>UTC</TIME_SYSTEM><MEAN_ELEMENT_THEORY>SGP4</MEAN_ELEMENT_THEORY></metadata><data><meanElements><EPOCH>2025-12-10T08:50:38.825088</EPOCH><MEAN_MOTION>1.00270995</MEAN_MOTION><ECCENTRICITY>.00030278</ECCENTRICITY><INCLINATION>0.0124</INCLINATION><RA_OF_ASC_NODE>358.5281</RA_OF_ASC_NODE><ARG_OF_PERICENTER>263.2322</ARG_OF_PERICENTER><MEAN_ANOMALY>193.4421</MEAN_ANOMALY></meanElements><tleParameters><EPHEMERIS_TYPE>0</EPHEMERIS_TYPE><CLASSIFICATION_TYPE>U</CLASSIFICATION_TYPE><NORAD_CAT_ID>39122</NORAD_CAT_ID><ELEMENT_SET_NO>999</ELEMENT_SET_NO><REV_AT_EPOCH>4654</REV_AT_EPOCH><BSTAR>0</BSTAR><MEAN_MOTION_DOT>-.9E-7</MEAN_MOTION_DOT><MEAN_MOTION_DDOT>0</MEAN_MOTION_DDOT></tleParameters></data></segment></body></omm>
<omm id="CCSDS_OMM_VERS" version="2.0">
<header><CREATION_DATE/><ORIGINATOR/></header><body><segment><metadata><OBJECT_NAME>EUTELSAT 7B</OBJECT_NAME><OBJECT_ID>2013-022A</OBJECT_ID><CENTER_NAME>EARTH</CENTER_NAME><REF_FRAME>TEME</REF_FRAME><TIME_SYSTEM>UTC</TIME_SYSTEM><MEAN_ELEMENT_THEORY>SGP4</MEAN_ELEMENT_THEORY></metadata><data><meanElements><EPOCH>2025-12-10T06:21:38.695680</EPOCH><MEAN_MOTION>1.00272011</MEAN_MOTION><ECCENTRICITY>.00045881</ECCENTRICITY><INCLINATION>0.0716</INCLINATION><RA_OF_ASC_NODE>16.4121</RA_OF_ASC_NODE><ARG_OF_PERICENTER>298.9676</ARG_OF_PERICENTER><MEAN_ANOMALY>226.2631</MEAN_ANOMALY></meanElements><tleParameters><EPHEMERIS_TYPE>0</EPHEMERIS_TYPE><CLASSIFICATION_TYPE>U</CLASSIFICATION_TYPE><NORAD_CAT_ID>39163</NORAD_CAT_ID><ELEMENT_SET_NO>999</ELEMENT_SET_NO><REV_AT_EPOCH>4606</REV_AT_EPOCH><BSTAR>0</BSTAR><MEAN_MOTION_DOT>.51E-6</MEAN_MOTION_DOT><MEAN_MOTION_DDOT>0</MEAN_MOTION_DDOT></tleParameters></data></segment></body></omm>
<omm id="CCSDS_OMM_VERS" version="2.0">
<header><CREATION_DATE/><ORIGINATOR/></header><body><segment><metadata><OBJECT_NAME>EXPRESS-AT1</OBJECT_NAME><OBJECT_ID>2014-010A</OBJECT_ID><CENTER_NAME>EARTH</CENTER_NAME><REF_FRAME>TEME</REF_FRAME><TIME_SYSTEM>UTC</TIME_SYSTEM><MEAN_ELEMENT_THEORY>SGP4</MEAN_ELEMENT_THEORY></metadata><data><meanElements><EPOCH>2025-12-10T12:40:38.892288</EPOCH><MEAN_MOTION>1.00270745</MEAN_MOTION><ECCENTRICITY>.00005265</ECCENTRICITY><INCLINATION>0.0127</INCLINATION><RA_OF_ASC_NODE>295.3549</RA_OF_ASC_NODE><ARG_OF_PERICENTER>270.9532</ARG_OF_PERICENTER><MEAN_ANOMALY>119.3483</MEAN_ANOMALY></meanElements><tleParameters><EPHEMERIS_TYPE>0</EPHEMERIS_TYPE><CLASSIFICATION_TYPE>U</CLASSIFICATION_TYPE><NORAD_CAT_ID>39612</NORAD_CAT_ID><ELEMENT_SET_NO>999</ELEMENT_SET_NO><REV_AT_EPOCH>4292</REV_AT_EPOCH><BSTAR>0</BSTAR><MEAN_MOTION_DOT>.83E-6</MEAN_MOTION_DOT><MEAN_MOTION_DDOT>0</MEAN_MOTION_DDOT></tleParameters></data></segment></body></omm>
<omm id="CCSDS_OMM_VERS" version="2.0">
<header><CREATION_DATE/><ORIGINATOR/></header><body><segment><metadata><OBJECT_NAME>EXPRESS-AT2</OBJECT_NAME><OBJECT_ID>2014-010B</OBJECT_ID><CENTER_NAME>EARTH</CENTER_NAME><REF_FRAME>TEME</REF_FRAME><TIME_SYSTEM>UTC</TIME_SYSTEM><MEAN_ELEMENT_THEORY>SGP4</MEAN_ELEMENT_THEORY></metadata><data><meanElements><EPOCH>2025-12-10T12:49:38.623584</EPOCH><MEAN_MOTION>1.00269643</MEAN_MOTION><ECCENTRICITY>.00015253</ECCENTRICITY><INCLINATION>0.0161</INCLINATION><RA_OF_ASC_NODE>340.0718</RA_OF_ASC_NODE><ARG_OF_PERICENTER>315.0800</ARG_OF_PERICENTER><MEAN_ANOMALY>116.6304</MEAN_ANOMALY></meanElements><tleParameters><EPHEMERIS_TYPE>0</EPHEMERIS_TYPE><CLASSIFICATION_TYPE>U</CLASSIFICATION_TYPE><NORAD_CAT_ID>39613</NORAD_CAT_ID><ELEMENT_SET_NO>999</ELEMENT_SET_NO><REV_AT_EPOCH>4260</REV_AT_EPOCH><BSTAR>0</BSTAR><MEAN_MOTION_DOT>0</MEAN_MOTION_DOT><MEAN_MOTION_DDOT>0</MEAN_MOTION_DDOT></tleParameters></data></segment></body></omm>
<omm id="CCSDS_OMM_VERS" version="2.0">
<header><CREATION_DATE/><ORIGINATOR/></header><body><segment><metadata><OBJECT_NAME>EUTELSAT 3B</OBJECT_NAME><OBJECT_ID>2014-030A</OBJECT_ID><CENTER_NAME>EARTH</CENTER_NAME><REF_FRAME>TEME</REF_FRAME><TIME_SYSTEM>UTC</TIME_SYSTEM><MEAN_ELEMENT_THEORY>SGP4</MEAN_ELEMENT_THEORY></metadata><data><meanElements><EPOCH>2025-12-10T06:29:38.861952</EPOCH><MEAN_MOTION>1.00271741</MEAN_MOTION><ECCENTRICITY>.00046891</ECCENTRICITY><INCLINATION>0.0626</INCLINATION><RA_OF_ASC_NODE>343.8632</RA_OF_ASC_NODE><ARG_OF_PERICENTER>244.6896</ARG_OF_PERICENTER><MEAN_ANOMALY>311.2150</MEAN_ANOMALY></meanElements><tleParameters><EPHEMERIS_TYPE>0</EPHEMERIS_TYPE><CLASSIFICATION_TYPE>U</CLASSIFICATION_TYPE><NORAD_CAT_ID>39773</NORAD_CAT_ID><ELEMENT_SET_NO>999</ELEMENT_SET_NO><REV_AT_EPOCH>4217</REV_AT_EPOCH><BSTAR>0</BSTAR><MEAN_MOTION_DOT>.23E-6</MEAN_MOTION_DOT><MEAN_MOTION_DDOT>0</MEAN_MOTION_DDOT></tleParameters></data></segment></body></omm>
<omm id="CCSDS_OMM_VERS" version="2.0">
<header><CREATION_DATE/><ORIGINATOR/></header><body><segment><metadata><OBJECT_NAME>EUTELSAT 115 WEST B</OBJECT_NAME><OBJECT_ID>2015-010B</OBJECT_ID><CENTER_NAME>EARTH</CENTER_NAME><REF_FRAME>TEME</REF_FRAME><TIME_SYSTEM>UTC</TIME_SYSTEM><MEAN_ELEMENT_THEORY>SGP4</MEAN_ELEMENT_THEORY></metadata><data><meanElements><EPOCH>2025-12-10T13:37:30.262368</EPOCH><MEAN_MOTION>1.00270169</MEAN_MOTION><ECCENTRICITY>.00002488</ECCENTRICITY><INCLINATION>0.0096</INCLINATION><RA_OF_ASC_NODE>142.1044</RA_OF_ASC_NODE><ARG_OF_PERICENTER>302.6393</ARG_OF_PERICENTER><MEAN_ANOMALY>84.2706</MEAN_ANOMALY></meanElements><tleParameters><EPHEMERIS_TYPE>0</EPHEMERIS_TYPE><CLASSIFICATION_TYPE>U</CLASSIFICATION_TYPE><NORAD_CAT_ID>40425</NORAD_CAT_ID><ELEMENT_SET_NO>999</ELEMENT_SET_NO><REV_AT_EPOCH>3950</REV_AT_EPOCH><BSTAR>0</BSTAR><MEAN_MOTION_DOT>-.21E-6</MEAN_MOTION_DOT><MEAN_MOTION_DDOT>0</MEAN_MOTION_DDOT></tleParameters></data></segment></body></omm>

</ndm>
